start=new Date('2023-04-09T00:00:00.000Z').valueOf();
sats=[{"GP_ID":"229730550","ECCENTRICITY":"0.00012530","RCS_SIZE":"LARGE","EPOCH":"2023-04-08T13:11:11.489856","SITE":"AFETR","EPHEMERIS_TYPE":"0","PERIOD":"95.437","OBJECT_NAME":"STARLINK-3653","LAUNCH_DATE":"2022-03-09","MEAN_ELEMENT_THEORY":"SGP4","NORAD_CAT_ID":"52000","SEMIMAJOR_AXIS":"6917.862","INCLINATION":"53.2148","CLASSIFICATION_TYPE":"U","FILE":"3883527","RA_OF_ASC_NODE":"125.1217","APOAPSIS":"540.594","BSTAR":"0.00008533200000","ELEMENT_SET_NO":"999","MEAN_ANOMALY":"263.2481","TLE_LINE2":"2 52000  53.2148 125.1217 0001253  96.8654 263.2481 15.08845859 59979","REF_FRAME":"TEME","OBJECT_TYPE":"PAYLOAD","OBJECT_ID":"2022-025AW","DECAY_DATE":null,"MEAN_MOTION_DOT":"0.00001071","CENTER_NAME":"EARTH","COUNTRY_CODE":"US","REV_AT_EPOCH":"5997","ARG_OF_PERICENTER":"96.8654","MEAN_MOTION_DDOT":"0.0000000000000","PERIAPSIS":"538.861","MEAN_MOTION":"15.08845859","TIME_SYSTEM":"UTC","TLE_LINE1":"1 52000U 22025AW  23098.54943854  .00001071  00000-0  85332-4 0  9996"},{"NORAD_CAT_ID":"52001","MEAN_ELEMENT_THEORY":"SGP4","SEMIMAJOR_AXIS":"6917.898","INCLINATION":"53.2148","FILE":"3883560","CLASSIFICATION_TYPE":"U","RA_OF_ASC_NODE":"124.2637","APOAPSIS":"541.194","BSTAR":"0.00002148400000","ELEMENT_SET_NO":"999","MEAN_ANOMALY":"276.9985","TLE_LINE2":"2 52001  53.2148 124.2637 0002069  83.1242 276.9985 15.08834334 61535","GP_ID":"229735144","ECCENTRICITY":"0.00020690","RCS_SIZE":"LARGE","EPOCH":"2023-04-08T18:13:16.417056","SITE":"AFETR","EPHEMERIS_TYPE":"0","PERIOD":"95.438","LAUNCH_DATE":"2022-03-09","OBJECT_NAME":"STARLINK-3659","MEAN_MOTION_DDOT":"0.0000000000000","PERIAPSIS":"538.331","MEAN_MOTION":"15.08834334","TIME_SYSTEM":"UTC","TLE_LINE1":"1 52001U 22025AX  23098.75921779  .00000054  00000-0  21484-4 0  9990","REF_FRAME":"TEME","OBJECT_ID":"2022-025AX","OBJECT_TYPE":"PAYLOAD","DECAY_DATE":null,"MEAN_MOTION_DOT":"0.00000054","CENTER_NAME":"EARTH","REV_AT_EPOCH":"6153","COUNTRY_CODE":"US","ARG_OF_PERICENTER":"83.1242"},{"RCS_SIZE":"LARGE","GP_ID":"229731052","ECCENTRICITY":"0.00014780","EPOCH":"2023-04-08T08:35:39.179904","SITE":"AFETR","PERIOD":"95.437","EPHEMERIS_TYPE":"0","LAUNCH_DATE":"2022-03-09","OBJECT_NAME":"STARLINK-3668","MEAN_ELEMENT_THEORY":"SGP4","NORAD_CAT_ID":"52002","SEMIMAJOR_AXIS":"6917.873","INCLINATION":"53.2162","FILE":"3883527","CLASSIFICATION_TYPE":"U","RA_OF_ASC_NODE":"126.0676","BSTAR":"0.00003960300000","ELEMENT_SET_NO":"999","APOAPSIS":"540.760","MEAN_ANOMALY":"247.7506","TLE_LINE2":"2 52002  53.2162 126.0676 0001478 112.3643 247.7506 15.08842431 59942","REF_FRAME":"TEME","OBJECT_ID":"2022-025AY","OBJECT_TYPE":"PAYLOAD","DECAY_DATE":null,"MEAN_MOTION_DOT":"0.00000342","COUNTRY_CODE":"US","REV_AT_EPOCH":"5994","CENTER_NAME":"EARTH","ARG_OF_PERICENTER":"112.3643","MEAN_MOTION_DDOT":"0.0000000000000","PERIAPSIS":"538.715","TIME_SYSTEM":"UTC","MEAN_MOTION":"15.08842431","TLE_LINE1":"1 52002U 22025AY  23098.35809236  .00000342  00000-0  39603-4 0  9992"},{"SEMIMAJOR_AXIS":"6917.868","INCLINATION":"53.2143","FILE":"3883527","CLASSIFICATION_TYPE":"U","NORAD_CAT_ID":"52003","MEAN_ELEMENT_THEORY":"SGP4","MEAN_ANOMALY":"262.4786","TLE_LINE2":"2 52003  53.2143 126.0842 0001246  97.6347 262.4786 15.08843922 59946","RA_OF_ASC_NODE":"126.0842","BSTAR":"0.00011029000000","ELEMENT_SET_NO":"999","APOAPSIS":"540.595","EPOCH":"2023-04-08T08:30:21.242592","RCS_SIZE":"LARGE","GP_ID":"229731797","ECCENTRICITY":"0.00012460","PERIOD":"95.437","EPHEMERIS_TYPE":"0","LAUNCH_DATE":"2022-03-09","OBJECT_NAME":"STARLINK-3654","SITE":"AFETR","PERIAPSIS":"538.871","MEAN_MOTION_DDOT":"0.0000000000000","TLE_LINE1":"1 52003U 22025AZ  23098.35441253  .00001468  00000-0  11029-3 0  9995","TIME_SYSTEM":"UTC","MEAN_MOTION":"15.08843922","OBJECT_ID":"2022-025AZ","OBJECT_TYPE":"PAYLOAD","REF_FRAME":"TEME","REV_AT_EPOCH":"5994","COUNTRY_CODE":"US","CENTER_NAME":"EARTH","ARG_OF_PERICENTER":"97.6347","DECAY_DATE":null,"MEAN_MOTION_DOT":"0.00001468"},{"OBJECT_ID":"2022-029A","OBJECT_TYPE":"PAYLOAD","REF_FRAME":"TEME","CENTER_NAME":"EARTH","COUNTRY_CODE":"US","REV_AT_EPOCH":"6120","ARG_OF_PERICENTER":"105.5559","DECAY_DATE":null,"MEAN_MOTION_DOT":"0.00003161","PERIAPSIS":"538.807","MEAN_MOTION_DDOT":"0.0000000000000","TLE_LINE1":"1 52088U 22029A   23098.26605054  .00003161  00000-0  21656-3 0  9992","MEAN_MOTION":"15.08852642","TIME_SYSTEM":"UTC","EPOCH":"2023-04-08T06:23:06.766656","GP_ID":"229730806","ECCENTRICITY":"0.00013000","RCS_SIZE":"LARGE","EPHEMERIS_TYPE":"0","PERIOD":"95.437","LAUNCH_DATE":"2022-03-19","OBJECT_NAME":"STARLINK-3537","SITE":"AFETR","INCLINATION":"53.2175","SEMIMAJOR_AXIS":"6917.842","FILE":"3883527","CLASSIFICATION_TYPE":"U","MEAN_ELEMENT_THEORY":"SGP4","NORAD_CAT_ID":"52088","MEAN_ANOMALY":"254.5577","TLE_LINE2":"2 52088  53.2175  86.2132 0001300 105.5559 254.5577 15.08852642 61209","RA_OF_ASC_NODE":"86.2132","APOAPSIS":"540.606","BSTAR":"0.00021656000000","ELEMENT_SET_NO":"999"},{"MEAN_MOTION_DDOT":"0.0000000000000","PERIAPSIS":"538.602","TIME_SYSTEM":"UTC","MEAN_MOTION":"15.08841392","TLE_LINE1":"1 52089U 22029B   23098.55773023 -.00000576  00000-0 -18111-4 0  9999","REF_FRAME":"TEME","OBJECT_ID":"2022-029B","OBJECT_TYPE":"PAYLOAD","MEAN_MOTION_DOT":"-0.00000576","DECAY_DATE":null,"ARG_OF_PERICENTER":"128.7731","COUNTRY_CODE":"US","REV_AT_EPOCH":"5970","CENTER_NAME":"EARTH","NORAD_CAT_ID":"52089","MEAN_ELEMENT_THEORY":"SGP4","FILE":"3883527","CLASSIFICATION_TYPE":"U","INCLINATION":"53.2164","SEMIMAJOR_AXIS":"6917.876","ELEMENT_SET_NO":"999","BSTAR":"-0.00001811100000","APOAPSIS":"540.881","RA_OF_ASC_NODE":"195.1676","TLE_LINE2":"2 52089  53.2164 195.1676 0001647 128.7731 231.3409 15.08841392 59703","MEAN_ANOMALY":"231.3409","RCS_SIZE":"LARGE","GP_ID":"229731058","ECCENTRICITY":"0.00016470","EPOCH":"2023-04-08T13:23:07.891872","SITE":"AFETR","LAUNCH_DATE":"2022-03-19","OBJECT_NAME":"STARLINK-3722","PERIOD":"95.437","EPHEMERIS_TYPE":"0"},{"MEAN_MOTION_DOT":"0.00000953","DECAY_DATE":null,"ARG_OF_PERICENTER":"84.9141","COUNTRY_CODE":"US","REV_AT_EPOCH":"5970","CENTER_NAME":"EARTH","REF_FRAME":"TEME","OBJECT_ID":"2022-029C","OBJECT_TYPE":"PAYLOAD","TIME_SYSTEM":"UTC","MEAN_MOTION":"15.08839318","TLE_LINE1":"1 52090U 22029C   23098.54669684  .00000953  00000-0  77972-4 0  9994","MEAN_MOTION_DDOT":"0.0000000000000","PERIAPSIS":"538.827","SITE":"AFETR","LAUNCH_DATE":"2022-03-19","OBJECT_NAME":"STARLINK-3712","PERIOD":"95.438","EPHEMERIS_TYPE":"0","RCS_SIZE":"LARGE","ECCENTRICITY":"0.00013310","GP_ID":"229731803","EPOCH":"2023-04-08T13:07:14.606976","BSTAR":"0.00007797200000","ELEMENT_SET_NO":"999","APOAPSIS":"540.668","RA_OF_ASC_NODE":"195.2222","TLE_LINE2":"2 52090  53.2157 195.2222 0001331  84.9141 275.2003 15.08839318 59705","MEAN_ANOMALY":"275.2003","MEAN_ELEMENT_THEORY":"SGP4","NORAD_CAT_ID":"52090","FILE":"3883527","CLASSIFICATION_TYPE":"U","INCLINATION":"53.2157","SEMIMAJOR_AXIS":"6917.882"},{"DECAY_DATE":null,"MEAN_MOTION_DOT":"0.00000236","COUNTRY_CODE":"US","REV_AT_EPOCH":"5970","CENTER_NAME":"EARTH","ARG_OF_PERICENTER":"54.2338","REF_FRAME":"TEME","OBJECT_ID":"2022-029D","OBJECT_TYPE":"PAYLOAD","TIME_SYSTEM":"UTC","MEAN_MOTION":"15.08836798","TLE_LINE1":"1 52091U 22029D   23098.55405987  .00000236  00000-0  32927-4 0  9995","MEAN_MOTION_DDOT":"0.0000000000000","PERIAPSIS":"539.163","SITE":"AFETR","PERIOD":"95.438","EPHEMERIS_TYPE":"0","OBJECT_NAME":"STARLINK-3713","LAUNCH_DATE":"2022-03-19","RCS_SIZE":"LARGE","GP_ID":"229730057","ECCENTRICITY":"0.00008560","EPOCH":"2023-04-08T13:17:50.772768","RA_OF_ASC_NODE":"195.1874","BSTAR":"0.00003292700000","ELEMENT_SET_NO":"999","APOAPSIS":"540.347","MEAN_ANOMALY":"305.8734","TLE_LINE2":"2 52091  53.2156 195.1874 0000856  54.2338 305.8734 15.08836798 59706","NORAD_CAT_ID":"52091","MEAN_ELEMENT_THEORY":"SGP4","INCLINATION":"53.2156","SEMIMAJOR_AXIS":"6917.890","CLASSIFICATION_TYPE":"U","FILE":"3883527"},{"MEAN_ANOMALY":"287.9109","TLE_LINE2":"2 52092  53.2159 195.2089 0001333  72.2028 287.9109 15.08839892 59700","RA_OF_ASC_NODE":"195.2089","APOAPSIS":"540.668","ELEMENT_SET_NO":"999","BSTAR":"0.00001432200000","SEMIMAJOR_AXIS":"6917.881","INCLINATION":"53.2159","FILE":"3883527","CLASSIFICATION_TYPE":"U","MEAN_ELEMENT_THEORY":"SGP4","NORAD_CAT_ID":"52092","EPHEMERIS_TYPE":"0","PERIOD":"95.438","LAUNCH_DATE":"2022-03-19","OBJECT_NAME":"STARLINK-3716","SITE":"AFETR","EPOCH":"2023-04-08T13:12:32.514048","ECCENTRICITY":"0.00013330","GP_ID":"229730307","RCS_SIZE":"LARGE","TLE_LINE1":"1 52092U 22029E   23098.55037632 -.00000060  00000-0  14322-4 0  9999","MEAN_MOTION":"15.08839892","TIME_SYSTEM":"UTC","PERIAPSIS":"538.824","MEAN_MOTION_DDOT":"0.0000000000000","CENTER_NAME":"EARTH","REV_AT_EPOCH":"5970","COUNTRY_CODE":"US","ARG_OF_PERICENTER":"72.2028","DECAY_DATE":null,"MEAN_MOTION_DOT":"-0.00000060","OBJECT_TYPE":"PAYLOAD","OBJECT_ID":"2022-029E","REF_FRAME":"TEME"},{"EPHEMERIS_TYPE":"0","PERIOD":"95.438","LAUNCH_DATE":"2022-03-19","OBJECT_NAME":"STARLINK-3673","SITE":"AFETR","EPOCH":"2023-04-08T12:56:38.806656","GP_ID":"229731558","ECCENTRICITY":"0.00016620","RCS_SIZE":"LARGE","MEAN_ANOMALY":"284.7029","TLE_LINE2":"2 52093  53.2144 195.2566 0001662  75.4147 284.7029 15.08837897 59706","RA_OF_ASC_NODE":"195.2566","APOAPSIS":"540.902","ELEMENT_SET_NO":"999","BSTAR":"0.00003976400000","INCLINATION":"53.2144","SEMIMAJOR_AXIS":"6917.887","CLASSIFICATION_TYPE":"U","FILE":"3883527","NORAD_CAT_ID":"52093","MEAN_ELEMENT_THEORY":"SGP4","CENTER_NAME":"EARTH","REV_AT_EPOCH":"5970","COUNTRY_CODE":"US","ARG_OF_PERICENTER":"75.4147","DECAY_DATE":null,"MEAN_MOTION_DOT":"0.00000345","OBJECT_TYPE":"PAYLOAD","OBJECT_ID":"2022-029F","REF_FRAME":"TEME","TLE_LINE1":"1 52093U 22029F   23098.53933804  .00000345  00000-0  39764-4 0  9996","MEAN_MOTION":"15.08837897","TIME_SYSTEM":"UTC","PERIAPSIS":"538.602","MEAN_MOTION_DDOT":"0.0000000000000"}];
